start=new Date('2022-06-24T00:00:00.000Z').valueOf();
sats=[{"PERIAPSIS":"484.781","MEAN_MOTION_DDOT":"0.0000000000000","APOAPSIS":"486.896","MEAN_ANOMALY":"0.9392","OBJECT_TYPE":"PAYLOAD","BSTAR":"-0.02912300000000","REV_AT_EPOCH":"130","FILE":"3500539","COUNTRY_CODE":"US","CLASSIFICATION_TYPE":"U","TIME_SYSTEM":"UTC","REF_FRAME":"TEME","SEMIMAJOR_AXIS":"6863.974","NORAD_CAT_ID":"52451","ECCENTRICITY":"0.00015410","SITE":"AFETR","MEAN_MOTION":"15.26649502","OBJECT_ID":"2022-049A","GP_ID":"206687853","ARG_OF_PERICENTER":"44.1406","ELEMENT_SET_NO":"999","CENTER_NAME":"EARTH","EPHEMERIS_TYPE":"0","LAUNCH_DATE":"2022-05-06","TLE_LINE2":"2 52451  53.2175  33.1532 0001541  44.1406   0.9392 15.26649502  1306","OBJECT_NAME":"STARLINK-3870","TLE_LINE1":"1 52451U 22049A   22174.58334491 -.00721975  00000-0 -29123-1 0  9998","DECAY_DATE":null,"RCS_SIZE":"LARGE","EPOCH":"2022-06-23T14:00:01.000224","MEAN_ELEMENT_THEORY":"SGP4","RA_OF_ASC_NODE":"33.1532","INCLINATION":"53.2175","PERIOD":"94.324","MEAN_MOTION_DOT":"-0.00721975"},{"TIME_SYSTEM":"UTC","NORAD_CAT_ID":"52452","ECCENTRICITY":"0.00017350","SEMIMAJOR_AXIS":"6867.833","REF_FRAME":"TEME","FILE":"3500539","BSTAR":"-0.03025600000000","REV_AT_EPOCH":"130","CLASSIFICATION_TYPE":"U","COUNTRY_CODE":"US","MEAN_MOTION_DDOT":"0.0000000000000","PERIAPSIS":"488.507","APOAPSIS":"490.890","MEAN_ANOMALY":"294.1143","OBJECT_TYPE":"PAYLOAD","MEAN_MOTION_DOT":"-0.00721419","MEAN_ELEMENT_THEORY":"SGP4","RCS_SIZE":"LARGE","EPOCH":"2022-06-23T14:00:01.000224","INCLINATION":"53.2176","PERIOD":"94.404","RA_OF_ASC_NODE":"33.1123","TLE_LINE2":"2 52452  53.2176  33.1123 0001735  37.7668 294.1143 15.25362718  1308","DECAY_DATE":null,"OBJECT_NAME":"STARLINK-3909","TLE_LINE1":"1 52452U 22049B   22174.58334491 -.00721419  00000-0 -30256-1 0  9991","ARG_OF_PERICENTER":"37.7668","GP_ID":"206688065","OBJECT_ID":"2022-049B","MEAN_MOTION":"15.25362718","SITE":"AFETR","LAUNCH_DATE":"2022-05-06","ELEMENT_SET_NO":"999","EPHEMERIS_TYPE":"0","CENTER_NAME":"EARTH"},{"MEAN_ELEMENT_THEORY":"SGP4","EPOCH":"2022-06-23T14:00:01.000224","RCS_SIZE":"LARGE","PERIOD":"94.300","INCLINATION":"53.2175","RA_OF_ASC_NODE":"33.1644","MEAN_MOTION_DOT":"-0.00722883","GP_ID":"206687959","ARG_OF_PERICENTER":"38.5380","OBJECT_ID":"2022-049C","MEAN_MOTION":"15.27046014","SITE":"AFETR","LAUNCH_DATE":"2022-05-06","EPHEMERIS_TYPE":"0","CENTER_NAME":"EARTH","ELEMENT_SET_NO":"999","TLE_LINE2":"2 52453  53.2175  33.1644 0001705  38.5380  29.7517 15.27046014  1300","DECAY_DATE":null,"TLE_LINE1":"1 52453U 22049C   22174.58334491 -.00722883  00000-0 -28811-1 0  9992","OBJECT_NAME":"STARLINK-3872","TIME_SYSTEM":"UTC","NORAD_CAT_ID":"52453","ECCENTRICITY":"0.00017050","REF_FRAME":"TEME","SEMIMAJOR_AXIS":"6862.786","APOAPSIS":"485.821","PERIAPSIS":"483.480","MEAN_MOTION_DDOT":"0.0000000000000","OBJECT_TYPE":"PAYLOAD","MEAN_ANOMALY":"29.7517","FILE":"3500539","REV_AT_EPOCH":"130","BSTAR":"-0.02881100000000","CLASSIFICATION_TYPE":"U","COUNTRY_CODE":"US"},{"TIME_SYSTEM":"UTC","NORAD_CAT_ID":"52454","ECCENTRICITY":"0.00016630","REF_FRAME":"TEME","SEMIMAJOR_AXIS":"6863.380","FILE":"3500539","REV_AT_EPOCH":"130","BSTAR":"-0.02896900000000","CLASSIFICATION_TYPE":"U","COUNTRY_CODE":"US","APOAPSIS":"486.386","PERIAPSIS":"484.103","MEAN_MOTION_DDOT":"0.0000000000000","MEAN_ANOMALY":"16.9825","OBJECT_TYPE":"PAYLOAD","MEAN_MOTION_DOT":"-0.00722488","MEAN_ELEMENT_THEORY":"SGP4","EPOCH":"2022-06-23T14:00:01.000224","RCS_SIZE":"LARGE","PERIOD":"94.312","INCLINATION":"53.2175","RA_OF_ASC_NODE":"33.1586","TLE_LINE2":"2 52454  53.2175  33.1586 0001663  39.7484  16.9825 15.26847778  1302","DECAY_DATE":null,"TLE_LINE1":"1 52454U 22049D   22174.58334491 -.00722488  00000-0 -28969-1 0  9998","OBJECT_NAME":"STARLINK-3888","ARG_OF_PERICENTER":"39.7484","GP_ID":"206688519","OBJECT_ID":"2022-049D","MEAN_MOTION":"15.26847778","SITE":"AFETR","LAUNCH_DATE":"2022-05-06","EPHEMERIS_TYPE":"0","CENTER_NAME":"EARTH","ELEMENT_SET_NO":"999"},{"MEAN_MOTION":"15.27190431","SITE":"AFETR","OBJECT_ID":"2022-049E","GP_ID":"206688200","ARG_OF_PERICENTER":"59.0253","EPHEMERIS_TYPE":"0","CENTER_NAME":"EARTH","ELEMENT_SET_NO":"999","LAUNCH_DATE":"2022-05-06","TLE_LINE2":"2 52455  53.2175  33.1682 0001362  59.0253  17.8590 15.27190431  1302","TLE_LINE1":"1 52455U 22049E   22174.58334491 -.00723143  00000-0 -28697-1 0  9996","OBJECT_NAME":"STARLINK-3890","DECAY_DATE":null,"EPOCH":"2022-06-23T14:00:01.000224","RCS_SIZE":"LARGE","MEAN_ELEMENT_THEORY":"SGP4","RA_OF_ASC_NODE":"33.1682","PERIOD":"94.291","INCLINATION":"53.2175","MEAN_MOTION_DOT":"-0.00723143","APOAPSIS":"485.153","MEAN_MOTION_DDOT":"0.0000000000000","PERIAPSIS":"483.283","MEAN_ANOMALY":"17.8590","OBJECT_TYPE":"PAYLOAD","REV_AT_EPOCH":"130","BSTAR":"-0.02869700000000","FILE":"3500539","COUNTRY_CODE":"US","CLASSIFICATION_TYPE":"U","TIME_SYSTEM":"UTC","REF_FRAME":"TEME","SEMIMAJOR_AXIS":"6862.353","NORAD_CAT_ID":"52455","ECCENTRICITY":"0.00013620"},{"TIME_SYSTEM":"UTC","NORAD_CAT_ID":"52456","ECCENTRICITY":"0.00016950","SEMIMAJOR_AXIS":"6861.759","REF_FRAME":"TEME","APOAPSIS":"484.787","PERIAPSIS":"482.461","MEAN_MOTION_DDOT":"0.0000000000000","MEAN_ANOMALY":"47.7518","OBJECT_TYPE":"PAYLOAD","FILE":"3500539","REV_AT_EPOCH":"130","BSTAR":"-0.02853200000000","CLASSIFICATION_TYPE":"U","COUNTRY_CODE":"US","MEAN_ELEMENT_THEORY":"SGP4","EPOCH":"2022-06-23T14:00:01.000224","RCS_SIZE":"LARGE","PERIOD":"94.279","INCLINATION":"53.2175","RA_OF_ASC_NODE":"33.1736","MEAN_MOTION_DOT":"-0.00723377","ARG_OF_PERICENTER":"40.5321","GP_ID":"206688412","OBJECT_ID":"2022-049F","SITE":"AFETR","MEAN_MOTION":"15.27388561","LAUNCH_DATE":"2022-05-06","EPHEMERIS_TYPE":"0","CENTER_NAME":"EARTH","ELEMENT_SET_NO":"999","TLE_LINE2":"2 52456  53.2175  33.1736 0001695  40.5321  47.7518 15.27388561  1308","DECAY_DATE":null,"TLE_LINE1":"1 52456U 22049F   22174.58334491 -.00723377  00000-0 -28532-1 0  9994","OBJECT_NAME":"STARLINK-3896"},{"COUNTRY_CODE":"US","CLASSIFICATION_TYPE":"U","REV_AT_EPOCH":"130","BSTAR":"-0.02838400000000","FILE":"3500539","OBJECT_TYPE":"PAYLOAD","MEAN_ANOMALY":"27.1719","APOAPSIS":"483.906","PERIAPSIS":"482.154","MEAN_MOTION_DDOT":"0.0000000000000","SEMIMAJOR_AXIS":"6861.165","REF_FRAME":"TEME","ECCENTRICITY":"0.00012770","NORAD_CAT_ID":"52457","TIME_SYSTEM":"UTC","TLE_LINE1":"1 52457U 22049G   22174.58334491 -.00723917  00000-0 -28384-1 0  9990","OBJECT_NAME":"STARLINK-3899","DECAY_DATE":null,"TLE_LINE2":"2 52457  53.2175  33.1791 0001277  72.4190  27.1719 15.27586941  1301","EPHEMERIS_TYPE":"0","CENTER_NAME":"EARTH","ELEMENT_SET_NO":"999","LAUNCH_DATE":"2022-05-06","MEAN_MOTION":"15.27586941","SITE":"AFETR","ARG_OF_PERICENTER":"72.4190","GP_ID":"206688306","OBJECT_ID":"2022-049G","MEAN_MOTION_DOT":"-0.00723917","RA_OF_ASC_NODE":"33.1791","PERIOD":"94.266","INCLINATION":"53.2175","EPOCH":"2022-06-23T14:00:01.000224","RCS_SIZE":"LARGE","MEAN_ELEMENT_THEORY":"SGP4"},{"EPOCH":"2022-06-23T14:00:01.000224","RCS_SIZE":"LARGE","MEAN_ELEMENT_THEORY":"SGP4","RA_OF_ASC_NODE":"33.1844","PERIOD":"94.254","INCLINATION":"53.2175","MEAN_MOTION_DOT":"-0.00724253","SITE":"AFETR","MEAN_MOTION":"15.27785119","GP_ID":"206688595","ARG_OF_PERICENTER":"40.4894","OBJECT_ID":"2022-049H","EPHEMERIS_TYPE":"0","CENTER_NAME":"EARTH","ELEMENT_SET_NO":"999","LAUNCH_DATE":"2022-05-06","TLE_LINE2":"2 52458  53.2175  33.1844 0001731  40.4894  70.3165 15.27785119  1305","TLE_LINE1":"1 52458U 22049H   22174.58334491 -.00724253  00000-0 -28224-1 0  9998","OBJECT_NAME":"STARLINK-3898","DECAY_DATE":null,"TIME_SYSTEM":"UTC","SEMIMAJOR_AXIS":"6860.572","REF_FRAME":"TEME","NORAD_CAT_ID":"52458","ECCENTRICITY":"0.00017310","APOAPSIS":"483.625","PERIAPSIS":"481.249","MEAN_MOTION_DDOT":"0.0000000000000","OBJECT_TYPE":"PAYLOAD","MEAN_ANOMALY":"70.3165","REV_AT_EPOCH":"130","BSTAR":"-0.02822400000000","FILE":"3500539","COUNTRY_CODE":"US","CLASSIFICATION_TYPE":"U"},{"MEAN_MOTION_DOT":"-0.01049136","RA_OF_ASC_NODE":"26.3406","PERIOD":"92.104","INCLINATION":"53.2173","RCS_SIZE":"LARGE","EPOCH":"2022-06-23T22:00:00.999936","MEAN_ELEMENT_THEORY":"SGP4","TLE_LINE1":"1 52459U 22049J   22174.91667824 -.01049136  00000-0 -12425-1 0  9992","OBJECT_NAME":"STARLINK-3856","DECAY_DATE":null,"TLE_LINE2":"2 52459  53.2173  26.3406 0002149  28.0919 139.5361 15.63452216  7802","EPHEMERIS_TYPE":"0","CENTER_NAME":"EARTH","ELEMENT_SET_NO":"999","LAUNCH_DATE":"2022-05-06","MEAN_MOTION":"15.63452216","SITE":"AFETR","GP_ID":"206694561","ARG_OF_PERICENTER":"28.0919","OBJECT_ID":"2022-049J","SEMIMAJOR_AXIS":"6755.831","REF_FRAME":"TEME","ECCENTRICITY":"0.00021490","NORAD_CAT_ID":"52459","TIME_SYSTEM":"UTC","COUNTRY_CODE":"US","CLASSIFICATION_TYPE":"U","REV_AT_EPOCH":"780","BSTAR":"-0.01242500000000","FILE":"3500817","OBJECT_TYPE":"PAYLOAD","MEAN_ANOMALY":"139.5361","APOAPSIS":"379.148","PERIAPSIS":"376.244","MEAN_MOTION_DDOT":"0.0000000000000"},{"LAUNCH_DATE":"2022-05-06","ELEMENT_SET_NO":"999","CENTER_NAME":"EARTH","EPHEMERIS_TYPE":"0","GP_ID":"206688066","ARG_OF_PERICENTER":"34.3154","OBJECT_ID":"2022-049K","MEAN_MOTION":"15.64210915","SITE":"AFETR","DECAY_DATE":null,"OBJECT_NAME":"STARLINK-3865","TLE_LINE1":"1 52460U 22049K   22174.58334491 -.01047591  00000-0 -12038-1 0  9991","TLE_LINE2":"2 52460  53.2175  27.9708 0001646  34.3154  56.9117 15.64210915  1309","INCLINATION":"53.2175","PERIOD":"92.059","RA_OF_ASC_NODE":"27.9708","MEAN_ELEMENT_THEORY":"SGP4","RCS_SIZE":"LARGE","EPOCH":"2022-06-23T14:00:01.000224","MEAN_MOTION_DOT":"-0.01047591","OBJECT_TYPE":"PAYLOAD","MEAN_ANOMALY":"56.9117","MEAN_MOTION_DDOT":"0.0000000000000","PERIAPSIS":"374.399","APOAPSIS":"376.623","CLASSIFICATION_TYPE":"U","COUNTRY_CODE":"US","FILE":"3500539","BSTAR":"-0.01203800000000","REV_AT_EPOCH":"130","ECCENTRICITY":"0.00016460","NORAD_CAT_ID":"52460","SEMIMAJOR_AXIS":"6753.646","REF_FRAME":"TEME","TIME_SYSTEM":"UTC"}];
